GLOBALSTAR M094         
1 39074U 13005C   25214.57863478 -.00000105  00000+0 -66742-5 0  9991
2 39074  51.9968  40.8684 0000973  65.4149 294.6819 12.62263102578230
GLOBALSTAR M096         
1 39075U 13005D   25214.59172570 -.00000099  00000+0  24799-4 0  9996
2 39075  52.0073  89.3797 0000859  45.4562 314.6375 12.62266074577154
GLOBALSTAR M078         
1 39076U 13005E   25214.24872414 -.00000091  00000+0  70673-4 0  9997
2 39076  51.9854 174.8708 0000681 301.3148  58.7652 12.62259702575735
GLOBALSTAR M095         
1 39077U 13005F   25214.43310314 -.00000092  00000+0  67073-4 0  9996
2 39077  51.9784 171.4803 0000613 346.5230  13.5620 12.62268455575611
